OBJECT_NAME,OBJECT_ID,EPOCH,MEAN_MOTION,ECCENTRICITY,INCLINATION,RA_OF_ASC_NODE,ARG_OF_PERICENTER,MEAN_ANOMALY,EPHEMERIS_TYPE,CLASSIFICATION_TYPE,NORAD_CAT_ID,ELEMENT_SET_NO,REV_AT_EPOCH,BSTAR,MEAN_MOTION_DOT,MEAN_MOTION_DDOT
ONEWEB-0130,2020-100U,2026-06-19T13:16:38.482752,13.12444917,.00017883,87.8947,350.1815,95.1433,264.9900,0,U,47276,999,26495,.69639378E-3,.263E-5,0
ONEWEB-0131,2020-100V,2026-06-19T22:20:41.013600,13.12445537,.00016112,87.8937,350.1244,92.2856,267.8457,0,U,47277,999,26504,.14728646E-3,.66E-6,0
ONEWEB-0132,2020-100W,2026-06-19T12:03:27.006624,13.12443058,.00017284,87.8939,350.2115,91.3516,268.7811,0,U,47278,999,26488,.58175111E-3,.222E-5,0
ONEWEB-0133,2020-100X,2026-06-19T21:36:32.532192,13.12441405,.0001631,87.8952,350.1085,90.8636,269.2679,0,U,47279,999,26509,-.90113482E-3,-.311E-5,0
ONEWEB-0134,2020-100Y,2026-06-19T22:42:36.510624,13.12448864,.00016932,87.8952,350.0966,99.7728,260.3592,0,U,47280,999,26507,-.1116866E-2,-.389E-5,0
ONEWEB-0135,2020-100Z,2026-06-19T22:01:07.875264,13.12443482,.00016012,87.8942,350.1247,98.1815,261.9495,0,U,47281,999,26509,-.13725325E-2,-.481E-5,0
ONEWEB-0136,2020-100AA,2026-06-19T22:27:58.500000,13.12445359,.00016599,87.8947,350.1027,101.5287,258.6028,0,U,47282,999,26502,.61383482E-3,.234E-5,0
ONEWEB-0137,2020-100AB,2026-06-19T21:26:59.358048,13.12441104,.0001925,87.8951,350.1212,89.2665,270.8684,0,U,47283,999,26492,-.35288832E-3,-.114E-5,0
ONEWEB-0138,2020-100AC,2026-06-19T22:45:04.017888,13.12444065,.00017567,87.8948,350.1160,98.8068,261.3259,0,U,47284,999,26501,.10796219E-2,.401E-5,0
ONEWEB-0139,2020-100AD,2026-06-19T21:54:00.839808,13.12441827,.00018287,87.8948,350.1093,93.1340,266.9998,0,U,47285,999,26508,-.11409388E-2,-.398E-5,0
ONEWEB-0140,2020-100AE,2026-06-19T22:37:44.516640,13.12444704,.00016243,87.8946,350.0945,87.6747,272.4568,0,U,47286,999,26505,.1110516E-2,.412E-5,0
ONEWEB-0141,2020-100AF,2026-06-19T21:53:36.950208,13.12441789,.00021157,87.8951,350.1050,89.0215,271.1156,0,U,47287,999,26503,-.11698306E-2,-.408E-5,0
ONEWEB-0142,2020-100AG,2026-06-19T21:36:58.255200,13.12442799,.00021766,87.8942,350.1286,97.4720,262.6655,0,U,47288,999,26502,-.86680218E-3,-.299E-5,0
ONEWEB-0143,2020-100AH,2026-06-18T22:04:13.014912,13.12443303,.0001816,87.8948,350.3227,90.3251,269.8085,0,U,47289,999,26487,-.15334E-2,-.539E-5,0
ONEWEB-0144,2020-100AJ,2026-06-19T13:50:48.262272,13.12443610,.00019094,87.8952,350.1663,102.9239,257.2103,0,U,47290,999,26488,.72182679E-3,.272E-5,0
ONEWEB-0145,2020-100AK,2026-06-19T22:18:12.951648,13.12445960,.00018701,87.8941,350.1236,94.2003,265.9339,0,U,47291,999,26512,.1135705E-3,.54E-6,0
ONEWEB-0146,2020-100AL,2026-06-19T22:13:20.453088,13.12445117,.00016431,87.8951,350.1163,81.7042,278.4273,0,U,47292,999,26503,-.31611997E-3,-.101E-5,0
ONEWEB-0147,2020-100AM,2026-06-19T12:15:38.520864,13.12440706,.00016705,87.8949,350.1805,93.8119,266.3201,0,U,47293,999,26487,-.3111108E-3,-.99E-6,0
ONEWEB-0115,2021-025A,2026-06-19T20:12:23.202144,13.13470941,.00017799,87.8963,319.6943,96.6590,263.4742,0,U,48042,999,25394,-.2420428E-3,-.76E-6,0
ONEWEB-0152,2021-025B,2026-06-19T18:42:11.394720,13.13470943,.00017306,87.8965,319.7038,94.9498,265.1829,0,U,48043,999,25389,.77159032E-3,.295E-5,0
ONEWEB-0153,2021-025C,2026-06-19T20:00:11.020032,13.13471059,.00018961,87.8960,319.6955,98.4621,261.6723,0,U,48044,999,25389,-.65054581E-3,-.225E-5,0
ONEWEB-0154,2021-025D,2026-06-19T19:55:17.378400,13.13484525,.00016939,87.8961,319.6939,97.9086,262.2235,0,U,48045,999,25385,-.88612759E-2,-.3223E-4,0
ONEWEB-0116,2021-025E,2026-06-19T20:51:22.976352,13.13468605,.0001741,87.8967,319.6828,97.7716,262.3611,0,U,48046,999,25400,.63816894E-3,.246E-5,0
ONEWEB-0150,2021-025F,2026-06-19T20:17:15.495072,13.13470902,.0002036,87.8962,319.6851,94.7850,265.3512,0,U,48047,999,25389,.24420775E-3,.102E-5,0
ONEWEB-0107,2021-025G,2026-06-19T20:19:41.805696,13.13470980,.00020301,87.8965,319.6810,102.4142,257.7215,0,U,48048,999,25387,.20975047E-3,.89E-6,0
ONEWEB-0101,2021-025H,2026-06-19T21:15:45.111456,13.13470588,.00018242,87.8955,319.6884,102.3332,257.8001,0,U,48049,999,25385,-.71922883E-4,-.14E-6,0
ONEWEB-0113,2021-025J,2026-06-19T19:59:54.646368,13.13893959,.00018472,87.8961,319.6090,93.4346,266.6995,0,U,48050,999,25395,-.63731185E-3,-.221E-5,0
ONEWEB-0112,2021-025K,2026-06-19T20:27:00.512928,13.13471647,.00018062,87.8965,319.6779,104.8803,255.2526,0,U,48051,999,25394,.40740102E-3,.162E-5,0
ONEWEB-0156,2021-025L,2026-06-19T20:39:11.719584,13.13470497,.00019893,87.8965,319.6862,98.2681,261.8674,0,U,48052,999,25392,.77379518E-3,.295E-5,0
ONEWEB-0161,2021-025M,2026-06-19T09:04:26.766912,13.13471649,.00020187,87.8963,319.7835,99.7133,260.4224,0,U,48053,999,25379,-.25586016E-3,-.81E-6,0
