ONEWEB-0130             
1 47276U 20100U   26170.55322318  .00000263  00000+0  69639-3 0  9990
2 47276  87.8947 350.1815 0001788  95.1433 264.9900 13.12444917264955
ONEWEB-0131             
1 47277U 20100V   26170.93103025  .00000066  00000+0  14729-3 0  9996
2 47277  87.8937 350.1244 0001611  92.2856 267.8457 13.12445537265042
ONEWEB-0132             
1 47278U 20100W   26170.50239591  .00000222  00000+0  58175-3 0  9995
2 47278  87.8939 350.2115 0001728  91.3516 268.7811 13.12443058264886
ONEWEB-0133             
1 47279U 20100X   26170.90037653 -.00000311  00000+0 -90113-3 0  9994
2 47279  87.8952 350.1085 0001631  90.8636 269.2679 13.12441405265093
ONEWEB-0134             
1 47280U 20100Y   26170.94625591 -.00000389  00000+0 -11169-2 0  9992
2 47280  87.8952 350.0966 0001693  99.7728 260.3592 13.12448864265070
ONEWEB-0135             
1 47281U 20100Z   26170.91745226 -.00000481  00000+0 -13725-2 0  9991
2 47281  87.8942 350.1247 0001601  98.1815 261.9495 13.12443482265094
ONEWEB-0136             
1 47282U 20100AA  26170.93609375  .00000234  00000+0  61383-3 0  9996
2 47282  87.8947 350.1027 0001659 101.5287 258.6028 13.12445359265024
ONEWEB-0137             
1 47283U 20100AB  26170.89374257 -.00000114  00000+0 -35289-3 0  9995
2 47283  87.8951 350.1212 0001925  89.2665 270.8684 13.12441104264920
ONEWEB-0138             
1 47284U 20100AC  26170.94796317  .00000401  00000+0  10796-2 0  9999
2 47284  87.8948 350.1160 0001756  98.8068 261.3259 13.12444065265017
ONEWEB-0139             
1 47285U 20100AD  26170.91250972 -.00000398  00000+0 -11409-2 0  9998
2 47285  87.8948 350.1093 0001828  93.1340 266.9998 13.12441827265085
ONEWEB-0140             
1 47286U 20100AE  26170.94287635  .00000412  00000+0  11105-2 0  9996
2 47286  87.8946 350.0945 0001624  87.6747 272.4568 13.12444704265051
ONEWEB-0141             
1 47287U 20100AF  26170.91223322 -.00000408  00000+0 -11698-2 0  9991
2 47287  87.8951 350.1050 0002115  89.0215 271.1156 13.12441789265035
ONEWEB-0142             
1 47288U 20100AG  26170.90067425 -.00000299  00000+0 -86680-3 0  9993
2 47288  87.8942 350.1286 0002176  97.4720 262.6655 13.12442799265028
ONEWEB-0143             
1 47289U 20100AH  26169.91959508 -.00000539  00000+0 -15334-2 0  9999
2 47289  87.8948 350.3227 0001816  90.3251 269.8085 13.12443303264873
ONEWEB-0144             
1 47290U 20100AJ  26170.57694748  .00000272  00000+0  72183-3 0  9995
2 47290  87.8952 350.1663 0001909 102.9239 257.2103 13.12443610264885
ONEWEB-0145             
1 47291U 20100AK  26170.92931657  .00000054  00000+0  11357-3 0  9992
2 47291  87.8941 350.1236 0001870  94.2003 265.9339 13.12445960265124
ONEWEB-0146             
1 47292U 20100AL  26170.92593117 -.00000101  00000+0 -31612-3 0  9999
2 47292  87.8951 350.1163 0001643  81.7042 278.4273 13.12445117265037
ONEWEB-0147             
1 47293U 20100AM  26170.51086251 -.00000099  00000+0 -31111-3 0  9991
2 47293  87.8949 350.1805 0001670  93.8119 266.3201 13.12440706264874
ONEWEB-0115             
1 48042U 21025A   26170.84193521 -.00000076  00000+0 -24204-3 0  9996
2 48042  87.8963 319.6943 0001779  96.6590 263.4742 13.13470941253949
ONEWEB-0152             
1 48043U 21025B   26170.77929855  .00000295  00000+0  77159-3 0  9994
2 48043  87.8965 319.7038 0001730  94.9498 265.1829 13.13470943253894
ONEWEB-0153             
1 48044U 21025C   26170.83346088 -.00000225  00000+0 -65055-3 0  9990
2 48044  87.8960 319.6955 0001896  98.4621 261.6723 13.13471059253890
ONEWEB-0154             
1 48045U 21025D   26170.83006225 -.00003223  00000+0 -88613-2 0  9992
2 48045  87.8961 319.6939 0001693  97.9086 262.2235 13.13484525253851
ONEWEB-0116             
1 48046U 21025E   26170.86901593  .00000246  00000+0  63817-3 0  9998
2 48046  87.8967 319.6828 0001741  97.7716 262.3611 13.13468605254005
ONEWEB-0150             
1 48047U 21025F   26170.84531823  .00000102  00000+0  24421-3 0  9991
2 48047  87.8962 319.6851 0002036  94.7850 265.3512 13.13470902253893
ONEWEB-0107             
1 48048U 21025G   26170.84701164  .00000089  00000+0  20975-3 0  9993
2 48048  87.8965 319.6810 0002030 102.4142 257.7215 13.13470980253876
ONEWEB-0101             
1 48049U 21025H   26170.88593879 -.00000014  00000+0 -71923-4 0  9990
2 48049  87.8955 319.6884 0001824 102.3332 257.8001 13.13470588253853
ONEWEB-0113             
1 48050U 21025J   26170.83327137 -.00000221  00000+0 -63731-3 0  9996
2 48050  87.8961 319.6090 0001847  93.4346 266.6995 13.13893959253953
ONEWEB-0112             
1 48051U 21025K   26170.85208927  .00000162  00000+0  40740-3 0  9991
2 48051  87.8965 319.6779 0001806 104.8803 255.2526 13.13471647253941
ONEWEB-0156             
1 48052U 21025L   26170.86055231  .00000295  00000+0  77380-3 0  9998
2 48052  87.8965 319.6862 0001989  98.2681 261.8674 13.13470497253924
ONEWEB-0161             
1 48053U 21025M   26170.37808758 -.00000081  00000+0 -25586-3 0  9991
2 48053  87.8963 319.7835 0002018  99.7133 260.4224 13.13471649253797
